{
  "type": "FeatureCollection",
  "features": [
    {
      "type": "Feature",
      "properties": {
        "norad_id": 33844,
        "name": "COSMOS 2251 DEB",
        "group": "cosmos-2251-debris",
        "lat": -36.68522044728624,
        "lon": -129.0637042501867,
        "alt_km": 816.974305269745,
        "timestamp": "2025-12-20T11:30:28.768903+00:00",
        "meta_object_name": "COSMOS 2251 DEB",
        "meta_object_id": "1993-036CM",
        "meta_epoch": "2025-12-20T02:14:29.580288",
        "meta_mean_motion": 14.33729834,
        "meta_eccentricity": 0.0047091,
        "meta_inclination": 74.0667,
        "meta_ra_of_asc_node": 39.3534,
        "meta_arg_of_pericenter": 58.9093,
        "meta_mean_anomaly": 327.1893,
        "meta_ephemeris_type": 0,
        "meta_classification_type": "U",
        "meta_norad_cat_id": 33844,
        "meta_element_set_no": 999,
        "meta_rev_at_epoch": 87831,
        "meta_bstar": 0.00025003,
        "meta_mean_motion_dot": 6.77e-06,
        "meta_mean_motion_ddot": 0,
        "tle_line1": "1 33844U 93036CM  25354.09339792  .00000677  00000+0  25003-3 0  9996",
        "tle_line2": "2 33844  74.0667  39.3534 0047091  58.9093 327.1893 14.33729834878310"
      },
      "geometry": {
        "type": "Point",
        "coordinates": [
          -129.0637042501867,
          -36.68522044728624
        ]
      }
    },
    {
      "type": "Feature",
      "properties": {
        "norad_id": 33848,
        "name": "COSMOS 2251 DEB",
        "group": "cosmos-2251-debris",
        "lat": -33.12345126668296,
        "lon": -27.526067381069847,
        "alt_km": 741.1349523609551,
        "timestamp": "2025-12-20T11:30:28.768914+00:00",
        "meta_object_name": "COSMOS 2251 DEB",
        "meta_object_id": "1993-036CR",
        "meta_epoch": "2025-12-20T00:17:50.671392",
        "meta_mean_motion": 14.44106795,
        "meta_eccentricity": 0.0041552,
        "meta_inclination": 74.0315,
        "meta_ra_of_asc_node": 344.1104,
        "meta_arg_of_pericenter": 37.7329,
        "meta_mean_anomaly": 20.7691,
        "meta_ephemeris_type": 0,
        "meta_classification_type": "U",
        "meta_norad_cat_id": 33848,
        "meta_element_set_no": 999,
        "meta_rev_at_epoch": 87936,
        "meta_bstar": 0.00073117,
        "meta_mean_motion_dot": 2.505e-05,
        "meta_mean_motion_ddot": 0,
        "tle_line1": "1 33848U 93036CR  25354.01239203  .00002505  00000+0  73117-3 0  9999",
        "tle_line2": "2 33848  74.0315 344.1104 0041552  37.7329  20.7691 14.44106795879362"
      },
      "geometry": {
        "type": "Point",
        "coordinates": [
          -27.526067381069847,
          -33.12345126668296
        ]
      }
    },
    {
      "type": "Feature",
      "properties": {
        "norad_id": 33892,
        "name": "COSMOS 2251 DEB",
        "group": "cosmos-2251-debris",
        "lat": 30.504372867330304,
        "lon": 97.7987766760937,
        "alt_km": 804.996102644961,
        "timestamp": "2025-12-20T11:30:28.768924+00:00",
        "meta_object_name": "COSMOS 2251 DEB",
        "meta_object_id": "1993-036CV",
        "meta_epoch": "2025-12-20T00:22:08.893344",
        "meta_mean_motion": 14.23361225,
        "meta_eccentricity": 0.0112449,
        "meta_inclination": 73.8027,
        "meta_ra_of_asc_node": 88.7851,
        "meta_arg_of_pericenter": 118.6054,
        "meta_mean_anomaly": 57.4187,
        "meta_ephemeris_type": 0,
        "meta_classification_type": "U",
        "meta_norad_cat_id": 33892,
        "meta_element_set_no": 999,
        "meta_rev_at_epoch": 87058,
        "meta_bstar": 0.00045404,
        "meta_mean_motion_dot": 1.073e-05,
        "meta_mean_motion_ddot": 0,
        "tle_line1": "1 33892U 93036CV  25354.01538071  .00001073  00000+0  45404-3 0  9990",
        "tle_line2": "2 33892  73.8027  88.7851 0112449 118.6054  57.4187 14.23361225870586"
      },
      "geometry": {
        "type": "Point",
        "coordinates": [
          97.7987766760937,
          30.504372867330304
        ]
      }
    },
    {
      "type": "Feature",
      "properties": {
        "norad_id": 33894,
        "name": "COSMOS 2251 DEB",
        "group": "cosmos-2251-debris",
        "lat": -9.300998676453473,
        "lon": -25.632357133415578,
        "alt_km": 1195.518547219489,
        "timestamp": "2025-12-20T11:30:28.768934+00:00",
        "meta_object_name": "COSMOS 2251 DEB",
        "meta_object_id": "1993-036CX",
        "meta_epoch": "2025-12-19T22:50:18.443040",
        "meta_mean_motion": 13.21320525,
        "meta_eccentricity": 0.0579153,
        "meta_inclination": 73.767,
        "meta_ra_of_asc_node": 337.9187,
        "meta_arg_of_pericenter": 256.3901,
        "meta_mean_anomaly": 97.2081,
        "meta_ephemeris_type": 0,
        "meta_classification_type": "U",
        "meta_norad_cat_id": 33894,
        "meta_element_set_no": 999,
        "meta_rev_at_epoch": 80803,
        "meta_bstar": 0.0010906,
        "meta_mean_motion_dot": 1.062e-05,
        "meta_mean_motion_ddot": 0,
        "tle_line1": "1 33894U 93036CX  25353.95160235  .00001062  00000+0  10906-2 0  9993",
        "tle_line2": "2 33894  73.7670 337.9187 0579153 256.3901  97.2081 13.21320525808033"
      },
      "geometry": {
        "type": "Point",
        "coordinates": [
          -25.632357133415578,
          -9.300998676453473
        ]
      }
    },
    {
      "type": "Feature",
      "properties": {
        "norad_id": 33896,
        "name": "COSMOS 2251 DEB",
        "group": "cosmos-2251-debris",
        "lat": -16.179343813307476,
        "lon": 137.78292726123593,
        "alt_km": 750.7095288107275,
        "timestamp": "2025-12-20T11:30:28.768944+00:00",
        "meta_object_name": "COSMOS 2251 DEB",
        "meta_object_id": "1993-036CZ",
        "meta_epoch": "2025-12-19T20:54:55.245600",
        "meta_mean_motion": 14.19053906,
        "meta_eccentricity": 0.01268079,
        "meta_inclination": 73.7663,
        "meta_ra_of_asc_node": 143.7355,
        "meta_arg_of_pericenter": 318.2939,
        "meta_mean_anomaly": 159.354,
        "meta_ephemeris_type": 0,
        "meta_classification_type": "U",
        "meta_norad_cat_id": 33896,
        "meta_element_set_no": 999,
        "meta_rev_at_epoch": 86841,
        "meta_bstar": 0.00030590791,
        "meta_mean_motion_dot": 6.64e-06,
        "meta_mean_motion_ddot": 0,
        "tle_line1": "1 33896U 93036CZ  25353.87147275  .00000664  00000+0  30591-3 0  9995",
        "tle_line2": "2 33896  73.7663 143.7355 0126807 318.2939 159.3540 14.19053906868412"
      },
      "geometry": {
        "type": "Point",
        "coordinates": [
          137.78292726123593,
          -16.179343813307476
        ]
      }
    },
    {
      "type": "Feature",
      "properties": {
        "norad_id": 33899,
        "name": "COSMOS 2251 DEB",
        "group": "cosmos-2251-debris",
        "lat": 73.11031081859781,
        "lon": -179.38540735892465,
        "alt_km": 649.4448545295836,
        "timestamp": "2025-12-20T11:30:28.768954+00:00",
        "meta_object_name": "COSMOS 2251 DEB",
        "meta_object_id": "1993-036DC",
        "meta_epoch": "2025-12-20T04:37:37.423200",
        "meta_mean_motion": 14.61249146,
        "meta_eccentricity": 0.0056257,
        "meta_inclination": 74.0544,
        "meta_ra_of_asc_node": 71.4909,
        "meta_arg_of_pericenter": 132.0189,
        "meta_mean_anomaly": 256.3671,
        "meta_ephemeris_type": 0,
        "meta_classification_type": "U",
        "meta_norad_cat_id": 33899,
        "meta_element_set_no": 999,
        "meta_rev_at_epoch": 88948,
        "meta_bstar": 0.00052227,
        "meta_mean_motion_dot": 2.604e-05,
        "meta_mean_motion_ddot": 0,
        "tle_line1": "1 33899U 93036DC  25354.19279425  .00002604  00000+0  52227-3 0  9993",
        "tle_line2": "2 33899  74.0544  71.4909 0056257 132.0189 256.3671 14.61249146889482"
      },
      "geometry": {
        "type": "Point",
        "coordinates": [
          -179.38540735892465,
          73.11031081859781
        ]
      }
    },
    {
      "type": "Feature",
      "properties": {
        "norad_id": 33900,
        "name": "COSMOS 2251 DEB",
        "group": "cosmos-2251-debris",
        "lat": 48.421696741867024,
        "lon": 3.9630661046383913,
        "alt_km": 690.0535818879935,
        "timestamp": "2025-12-20T11:30:28.768964+00:00",
        "meta_object_name": "COSMOS 2251 DEB",
        "meta_object_id": "1993-036DD",
        "meta_epoch": "2025-12-20T03:24:51.721920",
        "meta_mean_motion": 14.58370451,
        "meta_eccentricity": 0.0046511,
        "meta_inclination": 74.0182,
        "meta_ra_of_asc_node": 345.7584,
        "meta_arg_of_pericenter": 135.7196,
        "meta_mean_anomaly": 306.1704,
        "meta_ephemeris_type": 0,
        "meta_classification_type": "U",
        "meta_norad_cat_id": 33900,
        "meta_element_set_no": 999,
        "meta_rev_at_epoch": 89144,
        "meta_bstar": 0.00025551,
        "meta_mean_motion_dot": 1.171e-05,
        "meta_mean_motion_ddot": 0,
        "tle_line1": "1 33900U 93036DD  25354.14226530  .00001171  00000+0  25551-3 0  9998",
        "tle_line2": "2 33900  74.0182 345.7584 0046511 135.7196 306.1704 14.58370451891449"
      },
      "geometry": {
        "type": "Point",
        "coordinates": [
          3.9630661046383913,
          48.421696741867024
        ]
      }
    }
  ]
}